STARLINK-37232          
1 69515U 26133H   26188.50003472  .00060248  00000+0  10840-2 0  9991
2 69515  53.1602 221.3773 0001214  87.8844 320.4922 15.49281471  5130
STARLINK-37323          
1 69516U 26133J   26188.50003472 -.02433466  00000+0 -39620-1 0  9998
2 69516  53.1601 220.5518 0001419  50.2866  45.0196 15.55846277  5134
STARLINK-37357          
1 69517U 26133K   26188.12841330  .00034649  00000+0  62770-3 0  9990
2 69517  53.1588 223.4215 0000895 100.0723 260.0387 15.49335302  5167
STARLINK-37408          
1 69518U 26133L   26188.50003472  .00073477  00000+0  13186-2 0  9998
2 69518  53.1598 220.9107 0001341  34.0174 244.6595 15.49269484  5137
STARLINK-37570          
1 69519U 26133M   26188.50003472  .00061783  00000+0  11113-2 0  9994
2 69519  53.1602 221.4039 0001019  79.5133 314.0122 15.49278552  5139
STARLINK-37510          
1 69520U 26133N   26188.50003472  .00063029  00000+0  11334-2 0  9996
2 69520  53.1602 221.3529 0000615 102.7888 316.6976 15.49279194  5139
STARLINK-37586          
1 69521U 26133P   26188.50003472 -.02559539  00000+0 -42876-1 0  9991
2 69521  53.1603 220.4211 0001431  61.2896  97.1657 15.54659470  5136
STARLINK-37379          
1 69522U 26133Q   26188.50003472  .00063532  00000+0  11413-2 0  9995
2 69522  53.1600 221.0426 0001946  66.2611 145.1996 15.49303327  5186
STARLINK-37429          
1 69523U 26133R   26188.00003472  .00078539  00000+0  14060-2 0  9995
2 69523  53.1597 223.8533 0001350  62.6652  29.5785 15.49310165  5106
STARLINK-37352          
1 69524U 26133S   26188.50003472  .00061178  00000+0  11004-2 0  9997
2 69524  53.1600 221.0256 0001160  70.6853 148.5611 15.49282799  5184
STARLINK-37490          
1 69525U 26133T   26188.50003472  .00080294  00000+0  14405-2 0  9996
2 69525  53.1605 220.5591 0001203  38.3247  50.1260 15.49238955  5185
STARLINK-37438          
1 69526U 26133U   26188.50003472  .00060317  00000+0  10852-2 0  9993
2 69526  53.1601 221.1827 0001139  51.9286  88.9971 15.49283777  5183
STARLINK-37484          
1 69527U 26133V   26188.50003472  .00086230  00000+0  15472-2 0  9999
2 69527  53.1605 220.4651 0001523 102.8843  31.7251 15.49200958  5184
STARLINK-37523          
1 69528U 26133W   26188.50003472  .00061464  00000+0  11054-2 0  9994
2 69528  53.1599 220.9920 0001309  75.1427 159.5099 15.49284399  5183
STARLINK-37369          
1 69529U 26133X   26188.50003472  .00061534  00000+0  11068-2 0  9998
2 69529  53.1598 220.9508 0000750  85.2301 169.0267 15.49281846  5184
STARLINK-37670          
1 69530U 26133Y   26188.50003472  .00060000  00000+0  10795-2 0  9993
2 69530  53.1600 221.1185 0000913  64.2006 106.5422 15.49284171  5187
STARLINK-37897          
1 69531U 26133Z   26188.50003472  .00079945  00000+0  14349-2 0  9991
2 69531  53.1604 220.4433 0001171  21.9021 121.2584 15.49227347  5134
STARLINK-37933          
1 69532U 26133AA  26188.50003472 -.02393046  00000+0 -57933-1 0  9992
2 69532  53.1603 220.8091 0001032  57.2466 264.4195 15.44075894  5130
STARLINK-37890          
1 69533U 26133AB  26188.50003472 -.02817484  00000+0 -73190-1 0  9993
2 69533  53.1602 220.6686 0002007  62.9400 328.0376 15.41995922  5130
STARLINK-37407          
1 69534U 26133AC  26188.50003472 -.02719739  00000+0 -67877-1 0  9993
2 69534  53.1604 220.5205 0001620  72.6782  29.8586 15.43684794  5188
STARLINK-37888          
1 69535U 26133AD  26188.50003472 -.02708484  00000+0 -73953-1 0  9991
2 69535  53.1619 220.5664 0001666  64.8329  14.2727 15.41013878  5142
STARLINK-37889          
1 69536U 26133AE  26188.50003472  .00058816  00000+0  10583-2 0  9996
2 69536  53.1602 221.4256 0001128  83.1227 300.7580 15.49290331  5134
ZHUQUE-2E R/B           
1 69537U 26128C   26188.52224777  .00042936  00000+0  38794-3 0  9997
2 69537  54.5273 207.7173 0066481  40.2427 320.3501 15.64843882  4400
2026-134A               
1 69538U 26134A   26188.21035250  .00004337  00000+0  27467-3 0  9995
2 69538  97.7000 258.3925 0015452 198.4404 161.6266 15.09410912  3336
2026-134B               
1 69539U 26134B   26188.47321001  .00004047  00000+0  25544-3 0  9998
2 69539  97.6977 258.6549 0015555 199.8466 160.2160 15.09570100  3368
2026-134C               
1 69540U 26134C   26188.47274347  .00003965  00000+0  25020-3 0  9997
2 69540  97.6984 258.6571 0014984 201.0779 158.9834 15.09602794  3368
2026-134D               
1 69541U 26134D   26188.14048684  .00004262  00000+0  26813-3 0  9997
2 69541  97.7021 258.3361 0016004 202.0112 158.0431 15.09657868  3314
2026-134E               
1 69542U 26134E   26188.14016728  .00004230  00000+0  26600-3 0  9991
2 69542  97.7040 258.3417 0015736 202.6960 157.3574 15.09679581  3312
2026-134F               
1 69543U 26134F   26188.27205828  .00004131  00000+0  25962-3 0  9997
2 69543  97.6992 258.4627 0015015 203.7729 156.2808 15.09726217  3336
2026-134G               
1 69544U 26134G   26188.13827987  .00004143  00000+0  25975-3 0  9996
2 69544  97.7038 258.3433 0015476 205.1485 154.8992 15.09810240  3315
