OBJECT_NAME,OBJECT_ID,EPOCH,MEAN_MOTION,ECCENTRICITY,INCLINATION,RA_OF_ASC_NODE,ARG_OF_PERICENTER,MEAN_ANOMALY,EPHEMERIS_TYPE,CLASSIFICATION_TYPE,NORAD_CAT_ID,ELEMENT_SET_NO,REV_AT_EPOCH,BSTAR,MEAN_MOTION_DOT,MEAN_MOTION_DDOT
STARLINK-37232,2026-133H,2026-07-07T12:00:02.999808,15.49281471,.00012145,53.1602,221.3773,87.8844,320.4922,0,U,69515,999,513,.1084015E-2,.60248E-3,0
STARLINK-37323,2026-133J,2026-07-07T12:00:02.999808,15.55846277,.00014197,53.1601,220.5518,50.2866,45.0196,0,U,69516,999,513,-.39620094E-1,-.2433466E-1,0
STARLINK-37357,2026-133K,2026-07-07T03:04:54.909120,15.49335302,.00008951,53.1588,223.4215,100.0723,260.0387,0,U,69517,999,516,.62769551E-3,.34649E-3,0
STARLINK-37408,2026-133L,2026-07-07T12:00:02.999808,15.49269484,.00013414,53.1598,220.9107,34.0174,244.6595,0,U,69518,999,513,.13186059E-2,.73477E-3,0
STARLINK-37570,2026-133M,2026-07-07T12:00:02.999808,15.49278552,.00010199,53.1602,221.4039,79.5133,314.0122,0,U,69519,999,513,.1111326E-2,.61783E-3,0
STARLINK-37510,2026-133N,2026-07-07T12:00:02.999808,15.49279194,.00006156,53.1602,221.3529,102.7888,316.6976,0,U,69520,999,513,.11333694E-2,.63029E-3,0
STARLINK-37586,2026-133P,2026-07-07T12:00:02.999808,15.54659470,.00014312,53.1603,220.4211,61.2896,97.1657,0,U,69521,999,513,-.42876211E-1,-.2559539E-1,0
STARLINK-37379,2026-133Q,2026-07-07T12:00:02.999808,15.49303327,.00019461,53.1600,221.0426,66.2611,145.1996,0,U,69522,999,518,.11412822E-2,.63532E-3,0
STARLINK-37429,2026-133R,2026-07-07T00:00:02.999808,15.49310165,.00013506,53.1597,223.8533,62.6652,29.5785,0,U,69523,999,510,.14059603E-2,.78539E-3,0
STARLINK-37352,2026-133S,2026-07-07T12:00:02.999808,15.49282799,.00011602,53.1600,221.0256,70.6853,148.5611,0,U,69524,999,518,.11004427E-2,.61178E-3,0
STARLINK-37490,2026-133T,2026-07-07T12:00:02.999808,15.49238955,.00012031,53.1605,220.5591,38.3247,50.1260,0,U,69525,999,518,.14404727E-2,.80294E-3,0
STARLINK-37438,2026-133U,2026-07-07T12:00:02.999808,15.49283777,.00011393,53.1601,221.1827,51.9286,88.9971,0,U,69526,999,518,.1085162E-2,.60317E-3,0
STARLINK-37484,2026-133V,2026-07-07T12:00:02.999808,15.49200958,.00015238,53.1605,220.4651,102.8843,31.7251,0,U,69527,999,518,.15472497E-2,.8623E-3,0
STARLINK-37523,2026-133W,2026-07-07T12:00:02.999808,15.49284399,.00013099,53.1599,220.9920,75.1427,159.5099,0,U,69528,999,518,.11054432E-2,.61464E-3,0
STARLINK-37369,2026-133X,2026-07-07T12:00:02.999808,15.49281846,.00007502,53.1598,220.9508,85.2301,169.0267,0,U,69529,999,518,.1106788E-2,.61534E-3,0
STARLINK-37670,2026-133Y,2026-07-07T12:00:02.999808,15.49284171,.00009133,53.1600,221.1185,64.2006,106.5422,0,U,69530,999,518,.1079519E-2,.6E-3,0
STARLINK-37897,2026-133Z,2026-07-07T12:00:02.999808,15.49227347,.00011712,53.1604,220.4433,21.9021,121.2584,0,U,69531,999,513,.14349082E-2,.79945E-3,0
STARLINK-37933,2026-133AA,2026-07-07T12:00:02.999808,15.44075894,.00010324,53.1603,220.8091,57.2466,264.4195,0,U,69532,999,513,-.5793312E-1,-.2393046E-1,0
STARLINK-37890,2026-133AB,2026-07-07T12:00:02.999808,15.41995922,.00020071,53.1602,220.6686,62.9400,328.0376,0,U,69533,999,513,-.73189557E-1,-.2817484E-1,0
STARLINK-37407,2026-133AC,2026-07-07T12:00:02.999808,15.43684794,.00016206,53.1604,220.5205,72.6782,29.8586,0,U,69534,999,518,-.67876529E-1,-.2719739E-1,0
STARLINK-37888,2026-133AD,2026-07-07T12:00:02.999808,15.41013878,.00016664,53.1619,220.5664,64.8329,14.2727,0,U,69535,999,514,-.7395317E-1,-.2708484E-1,0
STARLINK-37889,2026-133AE,2026-07-07T12:00:02.999808,15.49290331,.00011288,53.1602,221.4256,83.1227,300.7580,0,U,69536,999,513,.10583166E-2,.58816E-3,0
ZHUQUE-2E R/B,2026-128C,2026-07-07T12:32:02.207328,15.64843882,.00664817,54.5273,207.7173,40.2427,320.3501,0,U,69537,999,440,.38794462E-3,.42936E-3,0
2026-134A,2026-134A,2026-07-07T05:02:54.456000,15.09410912,.00154526,97.7000,258.3925,198.4404,161.6266,0,U,69538,999,333,.27467213E-3,.4337E-4,0
2026-134B,2026-134B,2026-07-07T11:21:25.344864,15.09570100,.00155556,97.6977,258.6549,199.8466,160.2160,0,U,69539,999,336,.25544475E-3,.4047E-4,0
2026-134C,2026-134C,2026-07-07T11:20:45.035808,15.09602794,.00149844,97.6984,258.6571,201.0779,158.9834,0,U,69540,999,336,.25020036E-3,.3965E-4,0
2026-134D,2026-134D,2026-07-07T03:22:18.062976,15.09657868,.00160046,97.7021,258.3361,202.0112,158.0431,0,U,69541,999,331,.268131E-3,.4262E-4,0
2026-134E,2026-134E,2026-07-07T03:21:50.452992,15.09679581,.00157363,97.7040,258.3417,202.6960,157.3574,0,U,69542,999,331,.26599684E-3,.423E-4,0
2026-134F,2026-134F,2026-07-07T06:31:45.835392,15.09726217,.00150152,97.6992,258.4627,203.7729,156.2808,0,U,69543,999,333,.25962391E-3,.4131E-4,0
2026-134G,2026-134G,2026-07-07T03:19:07.380768,15.09810240,.00154764,97.7038,258.3433,205.1485,154.8992,0,U,69544,999,331,.25974696E-3,.4143E-4,0
